[{"OBJECT_NAME":"STARLINK-30878","OBJECT_ID":"2023-177J","EPOCH":"2026-03-09T04:36:10.431360","MEAN_MOTION":15.02536419,"ECCENTRICITY":0.00012405,"INCLINATION":43.0075,"RA_OF_ASC_NODE":354.0522,"ARG_OF_PERICENTER":273.5334,"MEAN_ANOMALY":86.5367,"EPHEMERIS_TYPE":0,"CLASSIFICATION_TYPE":"U","NORAD_CAT_ID":58359,"ELEMENT_SET_NO":999,"REV_AT_EPOCH":12814,"BSTAR":-5.8001014e-5,"MEAN_MOTION_DOT":-9.87e-6,"MEAN_MOTION_DDOT":0},{"OBJECT_NAME":"COSMOS 2251 DEB","OBJECT_ID":"1993-036BYJ","EPOCH":"2026-02-27T08:25:05.077344","MEAN_MOTION":15.02778291,"ECCENTRICITY":0.0017194,"INCLINATION":74.0208,"RA_OF_ASC_NODE":84.7822,"ARG_OF_PERICENTER":181.9976,"MEAN_ANOMALY":194.0424,"EPHEMERIS_TYPE":0,"CLASSIFICATION_TYPE":"U","NORAD_CAT_ID":47116,"ELEMENT_SET_NO":999,"REV_AT_EPOCH":60660,"BSTAR":0.0017596726,"MEAN_MOTION_DOT":0.00023658,"MEAN_MOTION_DDOT":0}]
